ALICE                   
1 39467U 13072F   26068.66905005  .00012311  00000+0  62398-3 0  9993
2 39467 120.4625 282.3278 0159202 246.5562 111.8695 15.07155655100262
STARLINK-34262          
1 64688U 25139AA  26068.42222469  .00014260  00000+0  49277-3 0  9999
2 64688  53.1601 128.2399 0001124  75.8582 284.2544 15.30193035 40303
